TDRS 11                 
1 39070U 13004A   26064.33828392  .00000074  00000+0  00000+0 0  9992
2 39070   3.3687  29.3698 0003978 350.9424  90.2110  1.00276897 45652
TDRS 12                 
1 39504U 14004A   26064.34193337 -.00000276  00000+0  00000+0 0  9995
2 39504   3.8768  17.2574 0003908 267.7803 320.2316  1.00269751 43234
GPM-CORE                
1 39574U 14009C   26064.17815136  .00011195  00000+0  24353-3 0  9998
2 39574  64.9731 296.5999 0012413 264.8625  95.1099 15.44629123681749
MMS 1                   
1 40482U 15011A   26064.33335648 -.00001903  00000+0  00000+0 0  9991
2 40482  70.7423 350.2191 8414109 165.2307 145.4857  0.28330875  1332
MMS 2                   
1 40483U 15011B   26064.33335648 -.00001903  00000+0  00000+0 0  9992
2 40483  70.7425 350.2212 8414838 165.2368 145.4692  0.28330881  1339
MMS 3                   
1 40484U 15011C   26064.33335648 -.00001903  00000+0  00000+0 0  9993
2 40484  70.7449 350.2259 8414123 165.2309 145.4778  0.28330849  1338
MMS 4                   
1 40485U 15011D   26064.33335648 -.00001903  00000+0  00000+0 0  9994
2 40485  70.7430 350.2210 8413624 165.2382 145.4635  0.28330846  1331
TDRS 13                 
1 42915U 17047A   26064.22439044 -.00000107  00000+0  00000+0 0  9993
2 42915   3.4297   0.0855 0010319  98.9678 133.2126  1.00272273 31306
NOAA 20 (JPSS-1)        
1 43013U 17073A   26064.24685596  .00000118  00000+0  76800-4 0  9996
2 43013  98.7688   4.6783 0001011 143.4453 216.6792 14.19534754429724
